ORBCOMM FM20            
1 25416U 98046D   25339.99966520  .00001828  00000+0  65000-3 0  9995
2 25416  44.9938  87.3718 0001298 181.0612 179.0234 14.37638471428981
ORBCOMM FM16            
1 25417U 98046E   25340.33954496  .00002537  00000+0  85121-3 0  9999
2 25417  44.9934  74.9833 0003367 111.8101 248.3106 14.39501092429058
ORBCOMM FM15            
1 25418U 98046F   25340.28975475  .00002796  00000+0  94065-3 0  9998
2 25418  44.9965  80.8900 0003200 113.1226 246.9960 14.39129261429037
ORBCOMM FM14            
1 25419U 98046G   25340.26180730  .00002969  00000+0  98762-3 0  9999
2 25419  44.9952  78.7372 0001966 122.6757 237.4281 14.39545831429007
ORBCOMM FM13            
1 25420U 98046H   25340.25331242  .00002546  00000+0  87732-3 0  9992
2 25420  44.9967  88.4943 0003684  77.4768 282.6492 14.38172134428001
ORBCOMM FM21            
1 25475U 98053A   25340.23266609  .00001585  00000+0  56841-3 0  9991
2 25475  45.0065 174.5127 0001655  31.9996 328.0952 14.37772999422001
ORBCOMM FM22            
1 25476U 98053B   25340.20821474  .00001953  00000+0  67354-3 0  9996
2 25476  45.0056 168.0234 0003116  22.4437 337.6547 14.38939093422049
ORBCOMM FM23            
1 25477U 98053C   25340.27835558  .00001824  00000+0  64389-3 0  9994
2 25477  45.0063 176.1483 0002563  18.7039 341.3904 14.38010494422162
